start=new Date('2022-01-21T00:00:00.000Z').valueOf();
sats=[{"APOAPSIS":"548.537","DECAY_DATE":null,"EPOCH":"2022-01-20T19:06:26.704224","NORAD_CAT_ID":"46791","ECCENTRICITY":"0.00018700","EPHEMERIS_TYPE":"0","OBJECT_NAME":"STARLINK-1933","ELEMENT_SET_NO":"999","OBJECT_ID":"2020-074BE","MEAN_MOTION_DDOT":"0.0000000000000","MEAN_ANOMALY":"293.4349","REF_FRAME":"TEME","COUNTRY_CODE":"US","SEMIMAJOR_AXIS":"6925.377","PERIOD":"95.593","TIME_SYSTEM":"UTC","CENTER_NAME":"EARTH","LAUNCH_DATE":"2020-10-24","RCS_SIZE":"LARGE","ARG_OF_PERICENTER":"66.6837","REV_AT_EPOCH":"6892","FILE":"3278671","RA_OF_ASC_NODE":"255.3026","OBJECT_TYPE":"PAYLOAD","MEAN_MOTION_DOT":"0.00002374","BSTAR":"0.00017830000000","GP_ID":"194267917","INCLINATION":"53.0530","SITE":"AFETR","PERIAPSIS":"545.947","MEAN_ELEMENT_THEORY":"SGP4","TLE_LINE2":"2 46791  53.0530 255.3026 0001870  66.6837 293.4349 15.06390649 68922","CLASSIFICATION_TYPE":"U","TLE_LINE1":"1 46791U 20074BE  22020.79614241  .00002374  00000-0  17830-3 0  9998","MEAN_MOTION":"15.06390649"},{"CENTER_NAME":"EARTH","LAUNCH_DATE":"2020-10-24","RCS_SIZE":"LARGE","ARG_OF_PERICENTER":"68.3582","REV_AT_EPOCH":"6932","FILE":"3278533","RA_OF_ASC_NODE":"247.2667","OBJECT_TYPE":"PAYLOAD","COUNTRY_CODE":"US","SEMIMAJOR_AXIS":"6925.364","PERIOD":"95.592","TIME_SYSTEM":"UTC","INCLINATION":"53.0533","SITE":"AFETR","PERIAPSIS":"545.981","MEAN_ELEMENT_THEORY":"SGP4","TLE_LINE2":"2 46792  53.0533 247.2667 0001802  68.3582 291.7599 15.06395002 69329","CLASSIFICATION_TYPE":"U","TLE_LINE1":"1 46792U 20074BF  22020.35843323  .00004747  00000-0  33739-3 0  9998","MEAN_MOTION":"15.06395002","MEAN_MOTION_DOT":"0.00004747","BSTAR":"0.00033739000000","GP_ID":"194260212","APOAPSIS":"548.477","DECAY_DATE":null,"EPOCH":"2022-01-20T08:36:08.631072","NORAD_CAT_ID":"46792","ECCENTRICITY":"0.00018020","ELEMENT_SET_NO":"999","OBJECT_ID":"2020-074BF","MEAN_MOTION_DDOT":"0.0000000000000","MEAN_ANOMALY":"291.7599","REF_FRAME":"TEME","EPHEMERIS_TYPE":"0","OBJECT_NAME":"STARLINK-1934"},{"EPHEMERIS_TYPE":"0","OBJECT_NAME":"STARLINK-1941","ELEMENT_SET_NO":"999","OBJECT_ID":"2020-074BG","MEAN_MOTION_DDOT":"0.0000000000000","MEAN_ANOMALY":"295.7636","REF_FRAME":"TEME","APOAPSIS":"548.478","DECAY_DATE":null,"EPOCH":"2022-01-20T09:17:16.999584","NORAD_CAT_ID":"46793","ECCENTRICITY":"0.00017760","MEAN_MOTION_DOT":"0.00004837","BSTAR":"0.00034347000000","GP_ID":"194260967","SITE":"AFETR","INCLINATION":"53.0541","PERIAPSIS":"546.018","MEAN_ELEMENT_THEORY":"SGP4","TLE_LINE2":"2 46793  53.0541 257.1477 0001776  64.3536 295.7636 15.06388862 69189","CLASSIFICATION_TYPE":"U","TLE_LINE1":"1 46793U 20074BG  22020.38700231  .00004837  00000-0  34347-3 0  9998","MEAN_MOTION":"15.06388862","COUNTRY_CODE":"US","SEMIMAJOR_AXIS":"6925.383","PERIOD":"95.593","TIME_SYSTEM":"UTC","CENTER_NAME":"EARTH","LAUNCH_DATE":"2020-10-24","ARG_OF_PERICENTER":"64.3536","RCS_SIZE":"LARGE","REV_AT_EPOCH":"6918","FILE":"3278533","RA_OF_ASC_NODE":"257.1477","OBJECT_TYPE":"PAYLOAD"},{"OBJECT_NAME":"STARLINK-1942","EPHEMERIS_TYPE":"0","REF_FRAME":"TEME","MEAN_ANOMALY":"297.4846","MEAN_MOTION_DDOT":"0.0000000000000","OBJECT_ID":"2020-074BH","ELEMENT_SET_NO":"999","ECCENTRICITY":"0.00018160","NORAD_CAT_ID":"46794","EPOCH":"2022-01-20T19:01:07.813920","DECAY_DATE":null,"APOAPSIS":"548.419","BSTAR":"0.00037443000000","GP_ID":"194267567","MEAN_MOTION_DOT":"0.00005302","MEAN_MOTION":"15.06417016","TLE_LINE1":"1 46794U 20074BH  22020.79245155  .00005302  00000-0  37443-3 0  9991","TLE_LINE2":"2 46794  53.0524 255.3288 0001816  62.6328 297.4846 15.06417016 68923","CLASSIFICATION_TYPE":"U","MEAN_ELEMENT_THEORY":"SGP4","PERIAPSIS":"545.904","SITE":"AFETR","INCLINATION":"53.0524","TIME_SYSTEM":"UTC","PERIOD":"95.591","SEMIMAJOR_AXIS":"6925.296","COUNTRY_CODE":"US","RA_OF_ASC_NODE":"255.3288","OBJECT_TYPE":"PAYLOAD","FILE":"3278671","REV_AT_EPOCH":"6892","ARG_OF_PERICENTER":"62.6328","RCS_SIZE":"LARGE","LAUNCH_DATE":"2020-10-24","CENTER_NAME":"EARTH"},{"APOAPSIS":"548.540","DECAY_DATE":null,"EPOCH":"2022-01-20T13:38:42.689760","NORAD_CAT_ID":"46796","ECCENTRICITY":"0.00018080","EPHEMERIS_TYPE":"0","OBJECT_NAME":"STARLINK-1944","ELEMENT_SET_NO":"999","OBJECT_ID":"2020-074BK","MEAN_MOTION_DDOT":"0.0000000000000","MEAN_ANOMALY":"287.9302","REF_FRAME":"TEME","COUNTRY_CODE":"US","SEMIMAJOR_AXIS":"6925.423","PERIOD":"95.594","TIME_SYSTEM":"UTC","CENTER_NAME":"EARTH","LAUNCH_DATE":"2020-10-24","RCS_SIZE":"LARGE","ARG_OF_PERICENTER":"72.1884","REV_AT_EPOCH":"6935","FILE":"3278533","OBJECT_TYPE":"PAYLOAD","RA_OF_ASC_NODE":"246.3304","MEAN_MOTION_DOT":"0.00000000","GP_ID":"194259466","BSTAR":"0.00001893200000","INCLINATION":"53.0547","SITE":"AFETR","PERIAPSIS":"546.036","TLE_LINE2":"2 46796  53.0547 246.3304 0001808  72.1884 287.9302 15.06375822 69350","CLASSIFICATION_TYPE":"U","MEAN_ELEMENT_THEORY":"SGP4","TLE_LINE1":"1 46796U 20074BK  22020.56854965  .00000000  00000-0  18932-4 0  9996","MEAN_MOTION":"15.06375822"},{"COUNTRY_CODE":"US","SEMIMAJOR_AXIS":"6752.586","PERIOD":"92.038","TIME_SYSTEM":"UTC","CENTER_NAME":"EARTH","LAUNCH_DATE":"2020-10-24","RCS_SIZE":"LARGE","ARG_OF_PERICENTER":"103.6434","REV_AT_EPOCH":"6993","FILE":"3278745","RA_OF_ASC_NODE":"187.5851","OBJECT_TYPE":"PAYLOAD","MEAN_MOTION_DOT":"0.00191133","BSTAR":"0.00190300000000","GP_ID":"194269462","SITE":"AFETR","INCLINATION":"53.0523","PERIAPSIS":"373.553","MEAN_ELEMENT_THEORY":"SGP4","TLE_LINE2":"2 46797  53.0523 187.5851 0001330 103.6434 256.4729 15.64579305 69933","CLASSIFICATION_TYPE":"U","TLE_LINE1":"1 46797U 20074BL  22020.72405723  .00191133  00000-0  19030-2 0  9995","MEAN_MOTION":"15.64579305","APOAPSIS":"375.349","DECAY_DATE":null,"EPOCH":"2022-01-20T17:22:38.544672","NORAD_CAT_ID":"46797","ECCENTRICITY":"0.00013300","EPHEMERIS_TYPE":"0","OBJECT_NAME":"STARLINK-1947","ELEMENT_SET_NO":"999","OBJECT_ID":"2020-074BL","MEAN_MOTION_DDOT":"0.0000000000000","MEAN_ANOMALY":"256.4729","REF_FRAME":"TEME"},{"OBJECT_TYPE":"PAYLOAD","RA_OF_ASC_NODE":"272.0854","FILE":"3278533","REV_AT_EPOCH":"6898","ARG_OF_PERICENTER":"72.6445","RCS_SIZE":"LARGE","LAUNCH_DATE":"2020-10-24","CENTER_NAME":"EARTH","TIME_SYSTEM":"UTC","PERIOD":"95.592","SEMIMAJOR_AXIS":"6925.346","COUNTRY_CODE":"US","MEAN_MOTION":"15.06400698","TLE_LINE1":"1 46798U 20074BM  22020.40126902  .00007208  00000-0  50227-3 0  9993","TLE_LINE2":"2 46798  53.0531 272.0854 0001632  72.6445 287.4723 15.06400698 68984","CLASSIFICATION_TYPE":"U","MEAN_ELEMENT_THEORY":"SGP4","PERIAPSIS":"546.081","INCLINATION":"53.0531","SITE":"AFETR","GP_ID":"194260467","BSTAR":"0.00050227000000","MEAN_MOTION_DOT":"0.00007208","ECCENTRICITY":"0.00016320","NORAD_CAT_ID":"46798","EPOCH":"2022-01-20T09:37:49.643328","DECAY_DATE":null,"APOAPSIS":"548.342","REF_FRAME":"TEME","MEAN_ANOMALY":"287.4723","MEAN_MOTION_DDOT":"0.0000000000000","OBJECT_ID":"2020-074BM","ELEMENT_SET_NO":"999","OBJECT_NAME":"STARLINK-1948","EPHEMERIS_TYPE":"0"},{"NORAD_CAT_ID":"47122","ECCENTRICITY":"0.00023100","DECAY_DATE":null,"EPOCH":"2022-01-20T18:05:23.213760","APOAPSIS":"548.834","MEAN_ANOMALY":"283.4352","REF_FRAME":"TEME","OBJECT_ID":"2020-088A","MEAN_MOTION_DDOT":"0.0000000000000","ELEMENT_SET_NO":"999","OBJECT_NAME":"STARLINK-1777","EPHEMERIS_TYPE":"0","OBJECT_TYPE":"PAYLOAD","RA_OF_ASC_NODE":"235.4901","REV_AT_EPOCH":"6470","FILE":"3278600","LAUNCH_DATE":"2020-11-25","ARG_OF_PERICENTER":"76.6894","RCS_SIZE":"LARGE","CENTER_NAME":"EARTH","PERIOD":"95.593","TIME_SYSTEM":"UTC","SEMIMAJOR_AXIS":"6925.369","COUNTRY_CODE":"US","MEAN_MOTION":"15.06393357","TLE_LINE1":"1 47122U 20088A   22020.75374090  .00000875  00000-0  77697-4 0  9995","CLASSIFICATION_TYPE":"U","TLE_LINE2":"2 47122  53.0535 235.4901 0002310  76.6894 283.4352 15.06393357 64705","MEAN_ELEMENT_THEORY":"SGP4","SITE":"AFETR","INCLINATION":"53.0535","PERIAPSIS":"545.634","GP_ID":"194265874","BSTAR":"0.00007769700000","MEAN_MOTION_DOT":"0.00000875"},{"DECAY_DATE":null,"EPOCH":"2022-01-20T08:11:33.741600","NORAD_CAT_ID":"47124","ECCENTRICITY":"0.00019250","APOAPSIS":"548.572","MEAN_ANOMALY":"291.7139","REF_FRAME":"TEME","ELEMENT_SET_NO":"999","OBJECT_ID":"2020-088C","MEAN_MOTION_DDOT":"0.0000000000000","EPHEMERIS_TYPE":"0","OBJECT_NAME":"STARLINK-1785","REV_AT_EPOCH":"6427","FILE":"3278533","RA_OF_ASC_NODE":"242.3548","OBJECT_TYPE":"PAYLOAD","CENTER_NAME":"EARTH","LAUNCH_DATE":"2020-11-25","ARG_OF_PERICENTER":"68.4055","RCS_SIZE":"LARGE","PERIOD":"95.593","TIME_SYSTEM":"UTC","COUNTRY_CODE":"US","SEMIMAJOR_AXIS":"6925.373","TLE_LINE1":"1 47124U 20088C   22020.34136275  .00004338  00000-0  31004-3 0  9992","MEAN_MOTION":"15.06391867","SITE":"AFETR","INCLINATION":"53.0536","PERIAPSIS":"545.905","TLE_LINE2":"2 47124  53.0536 242.3548 0001925  68.4055 291.7139 15.06391867 64272","MEAN_ELEMENT_THEORY":"SGP4","CLASSIFICATION_TYPE":"U","BSTAR":"0.00031004000000","GP_ID":"194259504","MEAN_MOTION_DOT":"0.00004338"},{"TIME_SYSTEM":"UTC","PERIOD":"95.593","SEMIMAJOR_AXIS":"6925.402","COUNTRY_CODE":"US","RA_OF_ASC_NODE":"237.4635","OBJECT_TYPE":"PAYLOAD","FILE":"3278533","REV_AT_EPOCH":"6434","RCS_SIZE":"LARGE","ARG_OF_PERICENTER":"68.2610","LAUNCH_DATE":"2020-11-25","CENTER_NAME":"EARTH","BSTAR":"0.00013933000000","GP_ID":"194259750","MEAN_MOTION_DOT":"0.00001793","MEAN_MOTION":"15.06382564","TLE_LINE1":"1 47126U 20088E   22020.31513194  .00001793  00000-0  13933-3 0  9993","CLASSIFICATION_TYPE":"U","TLE_LINE2":"2 47126  53.0532 237.4635 0002346  68.2610 291.8629 15.06382564 64342","MEAN_ELEMENT_THEORY":"SGP4","PERIAPSIS":"545.642","SITE":"AFETR","INCLINATION":"53.0532","ECCENTRICITY":"0.00023460","NORAD_CAT_ID":"47126","EPOCH":"2022-01-20T07:33:47.399616","DECAY_DATE":null,"APOAPSIS":"548.892","OBJECT_NAME":"STARLINK-1812","EPHEMERIS_TYPE":"0","REF_FRAME":"TEME","MEAN_ANOMALY":"291.8629","MEAN_MOTION_DDOT":"0.0000000000000","OBJECT_ID":"2020-088E","ELEMENT_SET_NO":"999"}];
